{
"type": "FeatureCollection",
"name": "gaza-westbank",
"crs": { "type": "name", "properties": { "name": "urn:ogc:def:crs:OGC:1.3:CRS84" } },
"features": [
{ "type": "Feature", "properties": { "source": "https://simplemaps.com", "id": "PSGZZ", "name": "Gaza Strip" }, "geometry": { "type": "Polygon", "coordinates": [ [ [ 34.481204126523089, 31.583141335690701 ], [ 34.520125976302786, 31.558326584289986 ], [ 34.556031617273568, 31.539825099160542 ], [ 34.528258913607068, 31.520144369765852 ], [ 34.495702761318412, 31.494409504400991 ], [ 34.495496056318416, 31.494409504400991 ], [ 34.480406541336308, 31.485624545073858 ], [ 34.367338492459737, 31.392813546869988 ], [ 34.345841101827439, 31.357725295137367 ], [ 34.345531041998512, 31.340723742086922 ], [ 34.353799272926693, 31.306358921910391 ], [ 34.350905400792008, 31.28925408971854 ], [ 34.315868779074364, 31.256904636717238 ], [ 34.264399044571363, 31.224193390686622 ], [ 34.248350857895467, 31.211448965664051 ], [ 34.230395954999615, 31.259230032454631 ], [ 34.224608193513419, 31.275714811311282 ], [ 34.200269440051493, 31.314266678153032 ], [ 34.222666864753329, 31.326646240923562 ], [ 34.236664258033116, 31.34235259777979 ], [ 34.281423377991821, 31.376695096301869 ], [ 34.301605668306337, 31.407700941955142 ], [ 34.348399276750975, 31.437648760459712 ], [ 34.368174669995348, 31.468166365903571 ], [ 34.443369989100049, 31.53457266719948 ], [ 34.47877037164411, 31.578273768685232 ], [ 34.481204126523089, 31.583141335690701 ] ] ] } },
{ "type": "Feature", "properties": { "source": "https://simplemaps.com", "id": "PSWBK", "name": "West Bank" }, "geometry": { "type": "Polygon", "coordinates": [ [ [ 35.458124636233343, 31.491929034184622 ], [ 35.390118446341418, 31.487071410304388 ], [ 35.332344204731868, 31.45880447810606 ], [ 35.223306933228855, 31.381031460852615 ], [ 35.164912549991655, 31.362272790055417 ], [ 35.040165654811048, 31.363203072212475 ], [ 34.980324334559704, 31.356174975452834 ], [ 34.954899540578197, 31.348630308106234 ], [ 34.927407681879458, 31.344909632650626 ], [ 34.900949334534118, 31.348475186096056 ], [ 34.878831830820033, 31.362841320841081 ], [ 34.86715294750924, 31.396430915975944 ], [ 34.881725705049291, 31.429865596494373 ], [ 34.926787559347403, 31.494409504400991 ], [ 34.932471960746412, 31.526965601909332 ], [ 34.932885373499005, 31.554922567398354 ], [ 34.937329557131179, 31.582001104872983 ], [ 34.95317554756803, 31.608319995499482 ], [ 34.955312944972093, 31.611869991148396 ], [ 34.973606411475629, 31.630370231065903 ], [ 35.059226279813991, 31.676796661399251 ], [ 35.093387238580199, 31.702415678803224 ], [ 35.11423122762686, 31.717685304187722 ], [ 35.125741814347045, 31.733102871007379 ], [ 35.148952047533655, 31.737348949464877 ], [ 35.154355283193659, 31.733425587922447 ], [ 35.16673323228288, 31.732052426771567 ], [ 35.179422767027148, 31.720102749211559 ], [ 35.205255000988259, 31.723186651850892 ], [ 35.219389090141981, 31.715115136384927 ], [ 35.224147654597786, 31.719162982030792 ], [ 35.227999833580668, 31.717428212292592 ], [ 35.231398820688391, 31.712609242180587 ], [ 35.23797017019762, 31.709332073511987 ], [ 35.242417167352549, 31.71085014596736 ], [ 35.244314938871916, 31.719355800984918 ], [ 35.24921513084761, 31.723572139748001 ], [ 35.252472482814021, 31.738050847811337 ], [ 35.258122116705081, 31.742422771624163 ], [ 35.262811048557658, 31.748625431606758 ], [ 35.259723638391904, 31.75693484583223 ], [ 35.253152283104392, 31.762522263862042 ], [ 35.25269907827284, 31.769650442736822 ], [ 35.258137443301102, 31.783712645141197 ], [ 35.262896013292711, 31.789683617707574 ], [ 35.25995024476957, 31.792572770330242 ], [ 35.258817252513857, 31.800661621724128 ], [ 35.255871465991667, 31.812215849291682 ], [ 35.260630033816035, 31.818762600910169 ], [ 35.264935400570167, 31.82627151108704 ], [ 35.260176838376196, 31.828774432540811 ], [ 35.253605477635567, 31.82935199524783 ], [ 35.251566089712114, 31.831277204552315 ], [ 35.257231061859528, 31.838592703525524 ], [ 35.253747094108896, 31.841456042658908 ], [ 35.249979899518586, 31.84436758816188 ], [ 35.244768127832884, 31.845137523021439 ], [ 35.233353218921174, 31.842611019661678 ], [ 35.227461654614785, 31.850310519999045 ], [ 35.225648880231546, 31.857239640871072 ], [ 35.226555259681355, 31.867247163204969 ], [ 35.222023291679747, 31.87917796594628 ], [ 35.212052960536674, 31.881487029654998 ], [ 35.205255000190469, 31.877253796752463 ], [ 35.204801809616747, 31.871096097993004 ], [ 35.209333769466873, 31.863398230229365 ], [ 35.212959358677303, 31.853390262049384 ], [ 35.216131731720857, 31.839146089127144 ], [ 35.216131730311943, 31.823744562806034 ], [ 35.215763507913181, 31.820110395895686 ], [ 35.213270924830049, 31.818762600910169 ], [ 35.196644248933481, 31.826440004366596 ], [ 35.189931277996465, 31.826656702947506 ], [ 35.183586507982533, 31.825116386125757 ], [ 35.182226916728823, 31.819917875195262 ], [ 35.185767518960098, 31.814117327602411 ], [ 35.186167027248409, 31.808739818256132 ], [ 35.17392202105156, 31.807550756760278 ], [ 35.136956944658976, 31.81429287873247 ], [ 35.121391835754885, 31.824845175061345 ], [ 35.112471535499282, 31.82396261286922 ], [ 35.097584996216966, 31.831265791453749 ], [ 35.08809136684814, 31.848131814928404 ], [ 35.076320186709438, 31.854158395666914 ], [ 35.064436229590214, 31.854579029570449 ], [ 35.056018406934214, 31.853317127923706 ], [ 35.045619953807055, 31.84826997376631 ], [ 35.027492334651356, 31.832731173364113 ], [ 35.012939041179479, 31.829340131634904 ], [ 35.001550261637973, 31.828498866364374 ], [ 34.980310005009137, 31.831317000225013 ], [ 34.977432818781914, 31.833365952017193 ], [ 34.978740325393495, 31.837333056868818 ], [ 34.989760895882654, 31.845584436676198 ], [ 34.998539994920769, 31.853835073726966 ], [ 35.006571934275293, 31.85605627918925 ], [ 35.030107381382152, 31.85700822456948 ], [ 35.034323080659078, 31.861113800008994 ], [ 35.039006229675387, 31.908637350173183 ], [ 35.029901729589056, 31.924429490373512 ], [ 35.016354408064693, 31.926586290863771 ], [ 35.005423669280965, 31.933768672176491 ], [ 35.003775790643864, 31.939211289963939 ], [ 35.007734257864342, 31.944921672810164 ], [ 35.001223063530311, 31.949619432725463 ], [ 34.986695297936294, 31.967227724316508 ], [ 34.997836514376772, 31.978779040189924 ], [ 34.998826843837286, 31.993898543720569 ], [ 34.996774725866167, 32.011101769517886 ], [ 35.007244660988775, 32.020771600755232 ], [ 34.984217001485518, 32.089583535992119 ], [ 34.986942881412887, 32.123991128975121 ], [ 34.977039571831114, 32.149987375628228 ], [ 34.962679793179589, 32.173461615645053 ], [ 34.958223311343474, 32.186453674438035 ], [ 34.961410766639645, 32.20157562013015 ], [ 35.000271446893819, 32.232013063977021 ], [ 35.007609492433602, 32.244389510770624 ], [ 35.01112349310236, 32.257101941882738 ], [ 35.009366499424274, 32.267643969134113 ], [ 35.00244185264345, 32.275137013252134 ], [ 34.989936158999647, 32.278470161920801 ], [ 34.993036744758932, 32.291570143927238 ], [ 34.996550737533767, 32.323041049597585 ], [ 35.000684860570686, 32.335727685005054 ], [ 35.004508917962944, 32.338053135990563 ], [ 35.017841438052905, 32.342213088668451 ], [ 35.02156214122207, 32.344590205991352 ], [ 35.028796838063883, 32.36515739314865 ], [ 35.032730300863506, 32.382200260352668 ], [ 35.044713166066337, 32.434119497854851 ], [ 35.064350217714086, 32.463135874922983 ], [ 35.090705194257012, 32.479233049065371 ], [ 35.120677526074481, 32.491325340516745 ], [ 35.151683399807744, 32.507913581697466 ], [ 35.176798154666798, 32.532692500533322 ], [ 35.190750777078968, 32.541709931727453 ], [ 35.208630836501364, 32.542640212056845 ], [ 35.210359362850355, 32.541867631801921 ], [ 35.223720344450662, 32.535896359915604 ], [ 35.252245723822938, 32.515949173299568 ], [ 35.270435827036394, 32.510471458419659 ], [ 35.333377725353742, 32.51308115198583 ], [ 35.363143356173872, 32.510109802108794 ], [ 35.392908977926361, 32.494477655931995 ], [ 35.401797324048943, 32.47096487989652 ], [ 35.401383918442342, 32.440010738829159 ], [ 35.406861610857838, 32.414792565336491 ], [ 35.432803187157631, 32.408255554102332 ], [ 35.456677699671367, 32.407609603068728 ], [ 35.48013878610405, 32.402416015668649 ], [ 35.560960736551209, 32.384716918787348 ], [ 35.563957959939145, 32.377042894216423 ], [ 35.56561160454369, 32.367947830363612 ], [ 35.559410432545121, 32.367947830363612 ], [ 35.559410446292773, 32.374820903073896 ], [ 35.551969040291667, 32.374820903073896 ], [ 35.551969026546899, 32.367947830363612 ], [ 35.557343377464818, 32.358206838239425 ], [ 35.556516560506772, 32.328208723941941 ], [ 35.565611620755135, 32.313351805354415 ], [ 35.561167449388037, 32.301698784113988 ], [ 35.560857375958165, 32.282630067696132 ], [ 35.564578091441753, 32.263587400059606 ], [ 35.572536259700705, 32.251908504687613 ], [ 35.567575309441224, 32.249505447182855 ], [ 35.563751268466113, 32.246818397300039 ], [ 35.561064086971172, 32.243149311774687 ], [ 35.559410441602779, 32.237594100709202 ], [ 35.572536255602984, 32.237594100709202 ], [ 35.559562410256248, 32.190370821088763 ], [ 35.555172968027485, 32.174393781020392 ], [ 35.559410443842097, 32.162534101288685 ], [ 35.559410446630046, 32.155092716169641 ], [ 35.551245566773879, 32.151527011921829 ], [ 35.546698031865198, 32.147031100832947 ], [ 35.546698039545383, 32.141605135136423 ], [ 35.551969042718753, 32.135197305629475 ], [ 35.535225865366279, 32.110805924671673 ], [ 35.534605760035618, 32.099230504390732 ], [ 35.545147742473652, 32.086828077227331 ], [ 35.52830123054823, 32.075097567205127 ], [ 35.522823518792741, 32.05783756222759 ], [ 35.524683883695566, 32.011690609141915 ], [ 35.535535922393684, 31.988229420696182 ], [ 35.537706336128778, 31.977584096335487 ], [ 35.538326462042072, 31.963941596890965 ], [ 35.539980099218276, 31.955621613012664 ], [ 35.545871218390232, 31.944562905959344 ], [ 35.545147745718033, 31.936604713761575 ], [ 35.540600215251338, 31.932005476300965 ], [ 35.533675584061818, 31.930300248076854 ], [ 35.527474399294093, 31.927354581730327 ], [ 35.524683878128634, 31.919241428074468 ], [ 35.54907514821199, 31.83919459484105 ], [ 35.538326459538617, 31.826740649246108 ], [ 35.538326449857962, 31.819299165952891 ], [ 35.55941044948198, 31.765349086881216 ], [ 35.527577760979952, 31.735066653907442 ], [ 35.502478568671904, 31.685360404177548 ], [ 35.480138797298537, 31.641118902629 ], [ 35.464222459793469, 31.568565220080703 ], [ 35.45874475338308, 31.494409504400991 ], [ 35.459054809906213, 31.492807515235615 ], [ 35.459158167482435, 31.491877376497058 ], [ 35.458744750902717, 31.49156728020758 ], [ 35.458124636233343, 31.491929034184622 ] ] ] } }
]
}
