{"type": "FeatureCollection", "name": "palestine", "crs": {"type": "name", "properties": {"name": "urn:ogc:def:crs:OGC:1.3:CRS84"}}, "features": [{"type": "Feature", "properties": {"source": "https://simplemaps.com", "id": "PSGZZ", "name": "Gaza Strip", "source_2": null, "id_2": null, "name_2": null}, "geometry": {"type": "MultiPolygon", "coordinates": [[[[35.45853804253081, 31.4916189378941], [35.45712755861762, 31.43352441894781], [35.456884406558, 31.423509473596347], [35.452853634706976, 31.40082344723361], [35.43507693932468, 31.360619155430157], [35.416473424348766, 31.331835390753994], [35.42391482851174, 31.324600674638948], [35.42226119283018, 31.30300000330324], [35.40820520439453, 31.28201938524056], [35.395699500314755, 31.25767971855609], [35.40117720752748, 31.230291251634338], [35.41068567312239, 31.204608087138517], [35.42133101408397, 31.184505921695163], [35.4362138270949, 31.159546204786228], [35.443241821583705, 31.132209375847705], [35.4384875893828, 31.103735651863115], [35.391565384801154, 31.02394721085738], [35.38515750747903, 30.994646678477444], [35.38526086327966, 30.96327910794886], [35.374098753325036, 30.945140671912203], [35.34711028747585, 30.922709667399833], [35.33492801777286, 30.912584515211833], [35.322215615802996, 30.889950245885814], [35.31952844018852, 30.867315963672986], [35.320045208196774, 30.844940102609012], [35.31663456382066, 30.822822586444644], [35.31084680566292, 30.813314138094576], [35.29389692761413, 30.80018825572143], [35.28614547054376, 30.792333506140412], [35.27953088604444, 30.7802412084036], [35.276120238209025, 30.76897572126038], [35.27157270863977, 30.743705915795154], [35.263881900492166, 30.71996695602039], [35.26382124994333, 30.719779773061184], [35.20532352764783, 30.617098699578325], [35.16212202729443, 30.494677211187668], [35.15736779733132, 30.47085439388127], [35.140004519125505, 30.43018505654027], [35.14000451755474, 30.406155501844996], [35.14496545194155, 30.39587186900853], [35.1593315003759, 30.37561471179332], [35.162122028222555, 30.36140370019416], [35.15995161845855, 30.347502733494068], [35.1544739161196, 30.33675403251109], [35.14775598088007, 30.326470437947236], [35.14176151464591, 30.31396473988938], [35.132356405812295, 30.26187490515914], [35.12522505769027, 30.24466665309033], [35.12481164485692, 30.216089577734614], [35.14527551222104, 30.154904685959703], [35.14527551220248, 30.123382061798495], [35.12904911248872, 30.08974069744511], [35.086261026947206, 30.034033508527294], [35.07468551137348, 29.99460443922266], [35.07406537462382, 29.98256365288312], [35.070344682473774, 29.973727080308354], [35.06538375344229, 29.965975695940866], [35.061456347234135, 29.957345748096134], [35.05411827018296, 29.923394124335918], [35.05318811240744, 29.862622803796977], [35.04895063783892, 29.842313907271517], [35.0025452086442, 29.73309582002975], [34.99510380942242, 29.708162004130543], [34.9898327937651, 29.651963712921766], [34.98032433868332, 29.6270040686646], [34.96699183145666, 29.608116441222585], [34.959860465408504, 29.586205467628734], [34.95557702143182, 29.558986743506722], [34.95134524332791, 29.545640323715386], [34.944997584403666, 29.536851233571678], [34.92774498145112, 29.518011725179527], [34.919769739195104, 29.50739178235859], [34.91578208605129, 29.500230108167525], [34.914073100336786, 29.493801056167197], [34.91081791984941, 29.489935752221456], [34.90300541244549, 29.48969154232055], [34.89372804600565, 29.49054582636574], [34.886729364466994, 29.490057706978217], [34.87810836475193, 29.50429846384914], [34.855267359748886, 29.54571692031776], [34.848239380566945, 29.569643255259518], [34.85009972889556, 29.638760449325606], [34.82436486816615, 29.74169993252509], [34.78519412084608, 29.83569924991975], [34.74137252015031, 29.940240803548516], [34.73506800001238, 29.994552777546488], [34.73558475799844, 30.000702209985317], [34.734964639990665, 30.006696675914654], [34.733207642037144, 30.012587789335626], [34.730417113951034, 30.01816884355648], [34.69165978970524, 30.114545387344148], [34.632645303209856, 30.262029920934513], [34.59946903383472, 30.344505502622315], [34.58841027997806, 30.358819894704414], [34.533839964701585, 30.400212696453185], [34.526915325204925, 30.40961782871013], [34.52474491437214, 30.421141665305537], [34.52650191402508, 30.438711667969198], [34.53601037742897, 30.46858064065405], [34.53621708128306, 30.48217153250411], [34.52629520522326, 30.494573857284944], [34.51037886475648, 30.513332407008452], [34.504384398794215, 30.53033395435084], [34.50221398818816, 30.57167510284689], [34.48040653445275, 30.651205134197344], [34.41880822389397, 30.79129991119392], [34.367855262400504, 30.907416859772248], [34.32951135630753, 30.994491707585293], [34.29798873106481, 31.078775957777367], [34.258611285417864, 31.184144172441272], [34.26757, 31.21997], [34.239902, 31.295941], [34.235526, 31.296499], [34.230395954999615, 31.25923003245463], [34.20026944005149, 31.314266678153032], [34.22266686475333, 31.326646240923562], [34.236664258033116, 31.34235259777979], [34.28142337799182, 31.37669509630187], [34.30160566830634, 31.40770094195514], [34.348399276750975, 31.437648760459712], [34.36817466999535, 31.46816636590357], [34.44336998910005, 31.53457266719948], [34.47877037164411, 31.578273768685232], [34.48120412652309, 31.5831413356907], [34.48951256581064, 31.600409245423336], [34.51392662878197, 31.627142643188474], [34.6027124425275, 31.757757933705115], [34.609629760431886, 31.765529742886205], [34.66594139405852, 31.873898928591522], [34.693207232086785, 31.926459093380224], [34.71192466956803, 31.95160549189158], [34.73388668573737, 32.013309655558004], [34.74333742851364, 32.03986231153661], [34.74398847013893, 32.044623058601], [34.742686387284245, 32.055609387802136], [34.74333743130345, 32.06037014610769], [34.7570093066839, 32.066595735201766], [34.8044350333499, 32.1925060823664], [34.837657101051526, 32.2807071302416], [34.867796260171296, 32.40750537382368], [34.87322024316998, 32.43032457288249], [34.904144743692115, 32.560614455784204], [34.90984134991392, 32.57025794196734], [34.91586345980087, 32.614894789638164], [34.92090904861076, 32.62824126715541], [34.91911868319072, 32.6429710740847], [34.94206790264383, 32.724514046702744], [34.947520395924016, 32.81415449484892], [34.95557700684714, 32.83437725214917], [34.970469596706714, 32.841376041736176], [34.98316490603457, 32.838771846406885], [35.00342856718229, 32.82754129368976], [35.01872804737954, 32.8250185169596], [35.0276798846472, 32.826605540989064], [35.06275474664814, 32.858343760461885], [35.067067889063146, 32.866847926505415], [35.07548894187957, 32.893075513478145], [35.07960043993962, 32.90582903815454], [35.07781007908952, 32.91787334103288], [35.06544030964947, 32.923081846977055], [35.07154380165052, 32.93793355108467], [35.078461126092975, 32.998846686615515], [35.09197025077713, 33.03119540116817], [35.09620201869512, 33.050360416677805], [35.09213301719547, 33.06769446536422], [35.096446174345026, 33.071356621128125], [35.10181726234956, 33.07762285249027], [35.10645593100654, 33.080755972661436], [35.099619983133984, 33.087591827012304], [35.10425864865724, 33.08852764979719], [35.10523523810467, 33.089016140384906], [35.185273069006236, 33.08397651929484], [35.18961387423989, 33.08552670891772], [35.19174609402253, 33.08691677299035], [35.20067264842138, 33.09273570119208], [35.20718386202512, 33.094802626408615], [35.20718737322359, 33.094802626408615], [35.21317833105817, 33.09444091440086], [35.22733769914436, 33.0913663639594], [35.23446905081138, 33.0909271427049], [35.239414198441736, 33.09229798187801], [35.24295385010557, 33.093279170209655], [35.251428131638676, 33.09562879601252], [35.27146936967911, 33.10118486716687], [35.28111239654548, 33.10118486716687], [35.28366500768238, 33.10118486716687], [35.28882468818035, 33.09920115579923], [35.29462040659607, 33.0969731997262], [35.30578250042456, 33.08937665009064], [35.315704386816336, 33.07922230861123], [35.322629018635816, 33.067362498205576], [35.33193079634524, 33.057156552226374], [35.34515993941269, 33.05558023928805], [35.35623018898594, 33.058003141036224], [35.401590602165655, 33.067930898103086], [35.440770272105404, 33.0820838469152], [35.44944297890853, 33.08521667093428], [35.48013880076393, 33.08738723786136], [35.481817754312196, 33.09253772106951], [35.48509972911166, 33.10260588181154], [35.5037032330805, 33.13061441860523], [35.51228152973724, 33.1474093235691], [35.51765589244811, 33.17288590721186], [35.52003300385833, 33.22218518980311], [35.527784451409886, 33.24425089566852], [35.53687951775586, 33.25786775008034], [35.5427706150547, 33.27153604174794], [35.549488584644735, 33.281018917704145], [35.56116745817197, 33.28212995713602], [35.56409964536264, 33.27911891504996], [35.5669551812376, 33.27618689245779], [35.58504196209337, 33.25220925055162], [35.59775434014421, 33.244354246890715], [35.59785769311803, 33.2443800846968], [35.59806439938302, 33.24425089566852], [35.60385216868687, 33.24009101190259], [35.603892451698336, 33.24032265052065], [35.604575629380584, 33.24425089566852], [35.60457562914158, 33.244354246890715], [35.61013431872751, 33.24920635039395], [35.61806026198728, 33.25612459219562], [35.62006512220815, 33.26953569745995], [35.63109201402258, 33.27456450185285], [35.65214333876788, 33.27665978944085], [35.66048955930615, 33.28926128988452], [35.69852339419178, 33.3226699622341], [35.71619674030202, 33.32672660739963], [35.72942590808154, 33.327811825533445], [35.74368860978301, 33.331170836603235], [35.75753786213674, 33.33631241445282], [35.76942345605068, 33.34264288013387], [35.778307935039194, 33.35093710304633], [35.78575320949034, 33.35788743142143], [35.80570031830004, 33.39134797155426], [35.82109989106424, 33.40672167844614], [35.82244349062163, 33.40137326065204], [35.81696579866426, 33.395198000457235], [35.815415474601714, 33.37886801284911], [35.81231490792092, 33.37336461389827], [35.80993778617187, 33.36003205262365], [35.79350469127975, 33.34992939245053], [35.79039593639145, 33.34710035349126], [35.78575320958827, 33.34287542811592], [35.76384242402493, 33.33440065859339], [35.76774978748689, 33.33216171556381], [35.80208295213303, 33.31248961633437], [35.768596622877276, 33.2726987537467], [35.77562462602307, 33.26489567298884], [35.80363327828654, 33.24846276127137], [35.807664017939594, 33.201721263903266], [35.83019495171479, 33.18999078535442], [35.83339887740301, 33.161129399625786], [35.822443473083695, 33.14156986718646], [35.811488091405536, 33.126764728692024], [35.81148808214589, 33.11190768485192], [35.84890180534199, 33.09867841515929], [35.84580121300247, 33.08542336291998], [35.85903040355815, 32.99020971995861], [35.86461145940319, 32.977729867304284], [35.88807253018967, 32.944940952755985], [35.87401655597546, 32.92233262434605], [35.86688523168472, 32.92078250905958], [35.84972864979496, 32.89582274155902], [35.8380497554067, 32.866031124367666], [35.84187382975866, 32.85357724243114], [35.83422570495544, 32.82794563505753], [35.784202935917236, 32.777948822828805], [35.75759033071555, 32.7443467193785], [35.75743453257475, 32.744281533519775], [35.74017460464298, 32.74053500063698], [35.685190891114225, 32.711234544389626], [35.652014601901065, 32.686171319496374], [35.63599491286286, 32.67914337095277], [35.612333835065556, 32.68153508297509], [35.61225029920548, 32.68158825217312], [35.593826954718466, 32.67035845227823], [35.57873740869327, 32.65343420690786], [35.569849066273626, 32.64676798189976], [35.56271774231504, 32.64421017534543], [35.56054733478112, 32.64090290225376], [35.560030575952574, 32.63268639758924], [35.56406132123793, 32.62547740648934], [35.57253624466519, 32.621239850777584], [35.572536244748406, 32.61501284139216], [35.56561160275046, 32.61501284139216], [35.565611596540656, 32.607545548721895], [35.571296039294864, 32.59855411539679], [35.57439659383252, 32.57276734251683], [35.5799776663741, 32.56039097130665], [35.57584354116066, 32.55496486778872], [35.57439661654764, 32.55439654510883], [35.573879828114336, 32.5567476352317], [35.57253626037292, 32.56039097130665], [35.57015912298098, 32.556825133815884], [35.56561161424189, 32.54610240655535], [35.5594104515943, 32.55294960550763], [35.562821083460214, 32.53202054944181], [35.56561159384106, 32.52558670542938], [35.55196901584838, 32.52558670542938], [35.55196902921704, 32.51881719642516], [35.557240030284675, 32.51933399948649], [35.561374148584314, 32.51917900361886], [35.56850549386516, 32.51026479766706], [35.5705725537837, 32.50602735316626], [35.579977667173345, 32.49773330359378], [35.579977651591435, 32.49148033544038], [35.57098595960411, 32.4892066265153], [35.56499148977354, 32.48390977066083], [35.56127079020982, 32.47708850817688], [35.55941044029065, 32.47039641752038], [35.56313115003419, 32.46817438360961], [35.565404909409416, 32.46631400361089], [35.56809208501952, 32.46497042132342], [35.57253626134097, 32.464195300976435], [35.57253624883745, 32.45672795938371], [35.56623173406747, 32.45311068843808], [35.55941044433689, 32.45052686079983], [35.56561160659828, 32.443705496494495], [35.551969040309416, 32.43621250508826], [35.5541394451688, 32.43445546630532], [35.556206511405, 32.434791434779235], [35.55786013993545, 32.43411949785485], [35.55941043770108, 32.429442825466644], [35.55196903170177, 32.429442825466644], [35.55196902635112, 32.423241612024825], [35.5581702033868, 32.41799649401777], [35.55910038687011, 32.413965788975965], [35.55486290773849, 32.41117517573978], [35.54514774928605, 32.40957328846739], [35.54959191517523, 32.39854031534327], [35.55196903570018, 32.39528473542892], [35.55682662161626, 32.390918083533386], [35.56096073655121, 32.38471691878735], [35.563957959939145, 32.37704289421642], [35.56561160454369, 32.36794783036361], [35.55941043254512, 32.36794783036361], [35.55941044629277, 32.374820903073896], [35.55196904029167, 32.374820903073896], [35.5519690265469, 32.36794783036361], [35.55734337746482, 32.358206838239425], [35.55651656050677, 32.32820872394194], [35.565611620755135, 32.313351805354415], [35.56116744938804, 32.30169878411399], [35.560857375958165, 32.28263006769613], [35.56457809144175, 32.263587400059606], [35.572536259700705, 32.25190850468761], [35.567575309441224, 32.249505447182855], [35.56375126846611, 32.24681839730004], [35.56106408697117, 32.24314931177469], [35.55941044160278, 32.2375941007092], [35.572536255602984, 32.2375941007092], [35.55956241025625, 32.19037082108876], [35.555172968027485, 32.17439378102039], [35.5594104438421, 32.162534101288685], [35.55941044663005, 32.15509271616964], [35.55124556677388, 32.15152701192183], [35.5466980318652, 32.14703110083295], [35.54669803954538, 32.14160513513642], [35.55196904271875, 32.135197305629475], [35.53522586536628, 32.11080592467167], [35.53460576003562, 32.09923050439073], [35.54514774247365, 32.08682807722733], [35.52830123054823, 32.07509756720513], [35.52282351879274, 32.05783756222759], [35.524683883695566, 32.011690609141915], [35.535535922393684, 31.988229420696182], [35.53770633612878, 31.977584096335487], [35.53832646204207, 31.963941596890965], [35.539980099218276, 31.955621613012664], [35.54587121839023, 31.944562905959344], [35.54514774571803, 31.936604713761575], [35.54060021525134, 31.932005476300965], [35.53367558406182, 31.930300248076854], [35.52747439929409, 31.927354581730327], [35.524683878128634, 31.919241428074468], [35.54907514821199, 31.83919459484105], [35.53832645953862, 31.82674064924611], [35.53832644985796, 31.81929916595289], [35.55941044948198, 31.765349086881216], [35.52757776097995, 31.73506665390744], [35.502478568671904, 31.685360404177548], [35.48013879729854, 31.641118902629], [35.46422245979347, 31.568565220080703], [35.45874475338308, 31.49440950440099], [35.45905480990621, 31.492807515235615], [35.459158167482435, 31.491877376497058], [35.45874475090272, 31.49156728020758], [35.45812463623334, 31.491929034184622], [35.45853804253081, 31.4916189378941]]]]}}]}