{
  "type": "FeatureCollection",
  "features": [
    {
      "type": "Feature",
      "properties": { "id": "gaza", "name": "Gaza Strip" },
      "geometry": {
        "type": "Polygon",
        "coordinates": [[[34.55944,31.52727],[34.56595,31.53282],[34.56762,31.54151],[34.49146,31.59492],[34.45082,31.54337],[34.43627,31.52759],[34.43414,31.52662],[34.43183,31.52796],[34.43449,31.52574],[34.43223,31.52386],[34.42822,31.52504],[34.43093,31.52921],[34.42894,31.52801],[34.42751,31.52599],[34.43025,31.52243],[34.42368,31.51364],[34.34344,31.43112],[34.21877,31.32374],[34.23557,31.29687],[34.24022,31.29582],[34.26757,31.21997],[34.28061,31.2292],[34.29335,31.24143],[34.31791,31.25203],[34.32749,31.25852],[34.33672,31.26763],[34.34307,31.27841],[34.36727,31.29061],[34.37395,31.30581],[34.36566,31.36281],[34.36774,31.36937],[34.37227,31.36998],[34.37449,31.37866],[34.37999,31.38561],[34.38108,31.38978],[34.39317,31.39998],[34.40225,31.41103],[34.40705,31.41248],[34.42684,31.42684],[34.43784,31.44035],[34.44649,31.44381],[34.46591,31.46169],[34.47847,31.47794],[34.4857,31.47978],[34.5125,31.50022],[34.52536,31.50272],[34.54737,31.5127],[34.55511,31.51844],[34.5551,31.52204],[34.55944,31.52727],[34.55944,31.52727]]]
      }
    }
  ]
}
