{
  "type": "FeatureCollection",
  "features": [
    {
      "type": "Feature",
      "properties": { "id": "gaza-city", "name": "Gaza City" },
      "geometry": {
        "type": "Polygon",
        "coordinates": [[[34.53000,31.50000],[34.52706,31.51545],[34.51854,31.52939],[34.50527,31.54045],[34.48854,31.54755],[34.47000,31.55000],[34.45146,31.54755],[34.43473,31.54045],[34.42146,31.52939],[34.41294,31.51545],[34.41000,31.50000],[34.41294,31.48455],[34.42146,31.47061],[34.43473,31.45955],[34.45146,31.45245],[34.47000,31.45000],[34.48854,31.45245],[34.50527,31.45955],[34.51854,31.47061],[34.52706,31.48455],[34.53000,31.50000]]]
      }
    }
  ]
}
