{
  "type": "FeatureCollection",
  "features": [
    {
      "type": "Feature",
      "properties": { "id": "jenin-area", "name": "Jenin" },
      "geometry": {
        "type": "Polygon",
        "coordinates": [[[35.37000,32.46000],[35.36657,32.47854],[35.35663,32.49527],[35.34114,32.50854],[35.32163,32.51706],[35.30000,32.52000],[35.27837,32.51706],[35.25886,32.50854],[35.24337,32.49527],[35.23343,32.47854],[35.23000,32.46000],[35.23343,32.44146],[35.24337,32.42473],[35.25886,32.41146],[35.27837,32.40294],[35.30000,32.40000],[35.32163,32.40294],[35.34114,32.41146],[35.35663,32.42473],[35.36657,32.44146],[35.37000,32.46000]]]
      }
    }
  ]
}
