{
  "type": "FeatureCollection",
  "features": [
    {
      "type": "Feature",
      "properties": { "id": "jericho-area", "name": "Jericho" },
      "geometry": {
        "type": "Polygon",
        "coordinates": [[[35.50500,31.87000],[35.50182,31.88545],[35.49259,31.89939],[35.47821,31.91045],[35.46009,31.91755],[35.44000,31.92000],[35.41991,31.91755],[35.40179,31.91045],[35.38741,31.89939],[35.37818,31.88545],[35.37500,31.87000],[35.37818,31.85455],[35.38741,31.84061],[35.40179,31.82955],[35.41991,31.82245],[35.44000,31.82000],[35.46009,31.82245],[35.47821,31.82955],[35.49259,31.84061],[35.50182,31.85455],[35.50500,31.87000]]]
      }
    }
  ]
}
