{
  "type": "FeatureCollection",
  "features": [
    {
      "type": "Feature",
      "properties": { "id": "jerusalem-area", "name": "Jerusalem" },
      "geometry": {
        "type": "Polygon",
        "coordinates": [[[35.27000,31.77800],[35.26829,31.78882],[35.26332,31.79857],[35.25557,31.80632],[35.24582,31.81129],[35.23500,31.81300],[35.22418,31.81129],[35.21443,31.80632],[35.20668,31.79857],[35.20171,31.78882],[35.20000,31.77800],[35.20171,31.76718],[35.20668,31.75743],[35.21443,31.74968],[35.22418,31.74471],[35.23500,31.74300],[35.24582,31.74471],[35.25557,31.74968],[35.26332,31.75743],[35.26829,31.76718],[35.27000,31.77800]]]
      }
    }
  ]
}
