{
  "type": "FeatureCollection",
  "features": [
    {
      "type": "Feature",
      "properties": { "id": "mandatory-palestine", "name": "Palestine" },
      "geometry": {
        "type": "Polygon",
        "coordinates": [[[35.45854,31.49162],[35.45688,31.42351],[35.43508,31.36062],[35.42391,31.3246],[35.40821,31.28202],[35.40118,31.23029],[35.42133,31.18451],[35.44324,31.13221],[35.39157,31.02395],[35.38526,30.96328],[35.34711,30.92271],[35.32222,30.88995],[35.32005,30.84494],[35.31085,30.81331],[35.28615,30.79233],[35.27612,30.76898],[35.26388,30.71997],[35.20532,30.6171],[35.15737,30.47085],[35.14,30.40616],[35.15933,30.37561],[35.15995,30.3475],[35.14776,30.32647],[35.13236,30.26187],[35.12481,30.21609],[35.14528,30.12338],[35.08626,30.03403],[35.07407,29.98256],[35.06538,29.96598],[35.05412,29.92339],[35.04895,29.84231],[34.9951,29.70816],[34.98032,29.627],[34.95986,29.58621],[34.95135,29.54564],[34.92774,29.51801],[34.91578,29.50023],[34.91082,29.48994],[34.89373,29.49055],[34.87811,29.5043],[34.84824,29.56964],[34.82436,29.7417],[34.74137,29.94024],[34.73558,30.0007],[34.73321,30.01259],[34.69166,30.11455],[34.59947,30.34451],[34.53384,30.40021],[34.52474,30.42114],[34.53601,30.46858],[34.5263,30.49457],[34.50438,30.53033],[34.48041,30.65121],[34.36786,30.90742],[34.29799,31.07878],[34.26757,31.21997],[34.239902,31.295941],[34.235526,31.296499],[34.22267,31.32665],[34.28142,31.3767],[34.3484,31.43765],[34.44337,31.53457],[34.4812,31.58314],[34.51393,31.62714],[34.60963,31.76553],[34.69321,31.92646],[34.73389,32.01331],[34.74399,32.04462],[34.74334,32.06037],[34.80444,32.19251],[34.8678,32.40751],[34.90414,32.56061],[34.91586,32.61489],[34.91912,32.64297],[34.94752,32.81415],[34.97047,32.84138],[35.00343,32.82754],[35.02768,32.82661],[35.06707,32.86685],[35.0796,32.90583],[35.06544,32.92308],[35.07846,32.99885],[35.0962,33.05036],[35.09645,33.07136],[35.10646,33.08076],[35.10426,33.08853],[35.18527,33.08398],[35.19175,33.08692],[35.20718,33.0948],[35.21318,33.09444],[35.23447,33.09093],[35.24295,33.09328],[35.27147,33.10118],[35.28367,33.10118],[35.29462,33.09697],[35.3157,33.07922],[35.33193,33.05716],[35.35623,33.058],[35.44077,33.08208],[35.48014,33.08739],[35.4851,33.10261],[35.51228,33.14741],[35.52003,33.22219],[35.53688,33.25787],[35.54949,33.28102],[35.5641,33.27912],[35.58504,33.25221],[35.59786,33.24438],[35.60385,33.24009],[35.60458,33.24425],[35.61013,33.24921],[35.62007,33.26954],[35.65214,33.27666],[35.69852,33.32267],[35.72943,33.32781],[35.75754,33.33631],[35.77831,33.35094],[35.8057,33.39135],[35.82244,33.40137],[35.81542,33.37887],[35.80994,33.36003],[35.7904,33.3471],[35.76384,33.3344],[35.80208,33.31249],[35.77562,33.2649],[35.80766,33.20172],[35.8334,33.16113],[35.81149,33.12676],[35.8489,33.09868],[35.85903,32.99021],[35.88807,32.94494],[35.86689,32.92078],[35.83805,32.86603],[35.83423,32.82795],[35.75759,32.74435],[35.74017,32.74054],[35.65201,32.68617],[35.61233,32.68154],[35.59383,32.67036],[35.56985,32.64677],[35.56055,32.6409],[35.56406,32.62548],[35.57254,32.61501],[35.56561,32.60755],[35.5744,32.57277],[35.57584,32.55496],[35.57388,32.55675],[35.57016,32.55683],[35.55941,32.55295],[35.56561,32.52559],[35.55197,32.51882],[35.56137,32.51918],[35.57057,32.50603],[35.57998,32.49148],[35.56499,32.48391],[35.55941,32.4704],[35.5654,32.46631],[35.57254,32.4642],[35.56623,32.45311],[35.56561,32.44371],[35.55414,32.43446],[35.55786,32.43412],[35.55197,32.42944],[35.55817,32.418],[35.55486,32.41118],[35.54959,32.39854],[35.55683,32.39092],[35.56396,32.37704],[35.55941,32.36795],[35.55197,32.37482],[35.55734,32.35821],[35.56561,32.31335],[35.56086,32.28263],[35.57254,32.25191],[35.56375,32.24682],[35.55941,32.23759],[35.55956,32.19037],[35.55941,32.16253],[35.55125,32.15153],[35.5467,32.14161],[35.53523,32.11081],[35.54515,32.08683],[35.52282,32.05784],[35.53554,31.98823],[35.53833,31.96394],[35.54587,31.94456],[35.5406,31.93201],[35.52747,31.92735],[35.54908,31.83919],[35.53833,31.8193],[35.52758,31.73507],[35.48014,31.64112],[35.45874,31.49441],[35.45916,31.49188],[35.45812,31.49193],[35.45854,31.49162],[35.45854,31.49162]]]
      }
    }
  ]
}
