{
  "type": "FeatureCollection",
  "features": [
    {
      "type": "Feature",
      "properties": { "id": "nablus-area", "name": "Nablus" },
      "geometry": {
        "type": "Polygon",
        "coordinates": [[[35.32000,32.22000],[35.31657,32.23854],[35.30663,32.25527],[35.29114,32.26854],[35.27163,32.27706],[35.25000,32.28000],[35.22837,32.27706],[35.20886,32.26854],[35.19337,32.25527],[35.18343,32.23854],[35.18000,32.22000],[35.18343,32.20146],[35.19337,32.18473],[35.20886,32.17146],[35.22837,32.16294],[35.25000,32.16000],[35.27163,32.16294],[35.29114,32.17146],[35.30663,32.18473],[35.31657,32.20146],[35.32000,32.22000]]]
      }
    }
  ]
}
