{
  "type": "FeatureCollection",
  "features": [
    {
      "type": "Feature",
      "properties": { "id": "ramallah-area", "name": "Ramallah" },
      "geometry": {
        "type": "Polygon",
        "coordinates": [[[35.27000,31.90000],[35.26657,31.91854],[35.25663,31.93527],[35.24114,31.94854],[35.22163,31.95706],[35.20000,31.96000],[35.17837,31.95706],[35.15886,31.94854],[35.14337,31.93527],[35.13343,31.91854],[35.13000,31.90000],[35.13343,31.88146],[35.14337,31.86473],[35.15886,31.85146],[35.17837,31.84294],[35.20000,31.84000],[35.22163,31.84294],[35.24114,31.85146],[35.25663,31.86473],[35.26657,31.88146],[35.27000,31.90000]]]
      }
    }
  ]
}
