{
"type": "FeatureCollection",
"name": "golan_heights_19811204",
"crs": { "type": "name", "properties": { "name": "urn:ogc:def:crs:OGC:1.3:CRS84" } },
"features": [
{ "type": "Feature", "properties": { "fid": 10.0, "name": "Golan Heights" }, "geometry": { "type": "MultiPolygon", "coordinates": [ [ [ [ 35.6137602, 32.8979893 ], [ 35.614055, 32.898003 ], [ 35.614624, 32.8993423 ], [ 35.6139717, 32.9002631 ], [ 35.6137549, 32.9004661 ], [ 35.6136094, 32.9005365 ], [ 35.6142408, 32.9013656 ], [ 35.6147499, 32.9018052 ], [ 35.6163662, 32.9027027 ], [ 35.6172542, 32.9040591 ], [ 35.6167002, 32.9045703 ], [ 35.6166879, 32.9047 ], [ 35.6167857, 32.9051099 ], [ 35.6171227, 32.9051697 ], [ 35.6175192, 32.9050962 ], [ 35.6183, 32.9050999 ], [ 35.61904, 32.9048061 ], [ 35.619425, 32.9048572 ], [ 35.6197656, 32.9050353 ], [ 35.6199775, 32.9053428 ], [ 35.619944, 32.9055069 ], [ 35.6199622, 32.9055187 ], [ 35.6203717, 32.905293 ], [ 35.6204768, 32.9052949 ], [ 35.6211393, 32.9049338 ], [ 35.6215616, 32.9049138 ], [ 35.6221646, 32.9047156 ], [ 35.6227749, 32.9049407 ], [ 35.6228633, 32.9053022 ], [ 35.6234102, 32.905825 ], [ 35.6234171, 32.9059084 ], [ 35.6235197, 32.9059718 ], [ 35.6236623, 32.9059465 ], [ 35.6243099, 32.9060367 ], [ 35.6243436, 32.9062339 ], [ 35.6246544, 32.9063636 ], [ 35.6249461, 32.9067418 ], [ 35.6251267, 32.9072484 ], [ 35.625279, 32.9074942 ], [ 35.6246508, 32.9082222 ], [ 35.6235847, 32.9081412 ], [ 35.6234708, 32.9081591 ], [ 35.6234092, 32.9085087 ], [ 35.623529, 32.9086227 ], [ 35.6243023, 32.9085558 ], [ 35.6247009, 32.9086711 ], [ 35.6247939, 32.9087503 ], [ 35.6251623, 32.9088409 ], [ 35.6255666, 32.9088283 ], [ 35.6258033, 32.9098154 ], [ 35.6253233, 32.91007 ], [ 35.625359, 32.9102074 ], [ 35.6258838, 32.9102051 ], [ 35.62614, 32.910442 ], [ 35.6263465, 32.9105315 ], [ 35.6269819, 32.91093 ], [ 35.6270156, 32.9115183 ], [ 35.6269846, 32.9116666 ], [ 35.627314, 32.9118464 ], [ 35.6271802, 32.9122678 ], [ 35.627172, 32.9125225 ], [ 35.6267301, 32.9128825 ], [ 35.6263564, 32.9130009 ], [ 35.6258617, 32.9132945 ], [ 35.6258608, 32.9134901 ], [ 35.6258247, 32.9134936 ], [ 35.6257877, 32.9135833 ], [ 35.6257735, 32.9138263 ], [ 35.6253743, 32.9139645 ], [ 35.6241488, 32.9141868 ], [ 35.6241358, 32.9142544 ], [ 35.6241772, 32.9142577 ], [ 35.62418, 32.9143129 ], [ 35.624132, 32.9143074 ], [ 35.6241742, 32.9163045 ], [ 35.6280799, 32.9374469 ], [ 35.6284961, 32.9474 ], [ 35.6289323, 32.956617 ], [ 35.6302626, 32.9588121 ], [ 35.6309969, 32.9600255 ], [ 35.633099, 32.9908568 ], [ 35.63043, 32.9946711 ], [ 35.6310311, 32.9979097 ], [ 35.6310111, 32.9979399 ], [ 35.6329729, 33.0088824 ], [ 35.6308752, 33.012246 ], [ 35.6298786, 33.0127124 ], [ 35.6293232, 33.0130217 ], [ 35.6290079, 33.0133545 ], [ 35.6289804, 33.0136216 ], [ 35.6290485, 33.0138155 ], [ 35.6292608, 33.0140251 ], [ 35.629733, 33.0143876 ], [ 35.6300434, 33.0145448 ], [ 35.6304158, 33.0169194 ], [ 35.6317166, 33.0240476 ], [ 35.6354764, 33.0310992 ], [ 35.6404833, 33.0406108 ], [ 35.641481, 33.0444484 ], [ 35.6416299, 33.0448297 ], [ 35.6466393, 33.0633915 ], [ 35.6454594, 33.077734 ], [ 35.6469527, 33.0806442 ], [ 35.6501783, 33.0871303 ], [ 35.6510728, 33.0995588 ], [ 35.6511885, 33.1014863 ], [ 35.6518896, 33.1110128 ], [ 35.6528271, 33.1229934 ], [ 35.6542903, 33.1254676 ], [ 35.6544701, 33.1258338 ], [ 35.6602344, 33.1356804 ], [ 35.6705877, 33.1534967 ], [ 35.6703437, 33.1544995 ], [ 35.6658205, 33.1762438 ], [ 35.6629013, 33.190088 ], [ 35.6658, 33.209747 ], [ 35.6665196, 33.2142263 ], [ 35.6675299, 33.2211071 ], [ 35.6669317, 33.2255358 ], [ 35.6707228, 33.2306186 ], [ 35.6719731, 33.231586 ], [ 35.6728008, 33.2322693 ], [ 35.6733067, 33.2324426 ], [ 35.674159, 33.2322044 ], [ 35.6743932, 33.2321697 ], [ 35.6744758, 33.2321942 ], [ 35.6745209, 33.2322983 ], [ 35.6750245, 33.2321679 ], [ 35.6757023, 33.2329024 ], [ 35.6770254, 33.2328061 ], [ 35.6772318, 33.2329017 ], [ 35.6775516, 33.2331371 ], [ 35.677898, 33.2335974 ], [ 35.6780451, 33.2336971 ], [ 35.6782013, 33.2340104 ], [ 35.6785699, 33.2340186 ], [ 35.6788651, 33.2341809 ], [ 35.6794019, 33.234367 ], [ 35.6794865, 33.234516 ], [ 35.6794596, 33.2349427 ], [ 35.6795774, 33.2350195 ], [ 35.6797211, 33.2350522 ], [ 35.6798174, 33.2351138 ], [ 35.6803387, 33.2350472 ], [ 35.6808258, 33.2351805 ], [ 35.6813364, 33.2355179 ], [ 35.6816153, 33.2358939 ], [ 35.6815352, 33.2362933 ], [ 35.6816033, 33.2364345 ], [ 35.6826356, 33.2367937 ], [ 35.6830824, 33.2370905 ], [ 35.683437, 33.2376234 ], [ 35.683545, 33.2380493 ], [ 35.6837486, 33.2383407 ], [ 35.6838861, 33.2391433 ], [ 35.6835328, 33.2396935 ], [ 35.6829442, 33.2401671 ], [ 35.682147, 33.2410649 ], [ 35.6821276, 33.2413071 ], [ 35.6824551, 33.2418625 ], [ 35.6828551, 33.2421619 ], [ 35.6835486, 33.2425396 ], [ 35.684354, 33.2427337 ], [ 35.6843067, 33.2445067 ], [ 35.6843041, 33.2445868 ], [ 35.6841802, 33.2447338 ], [ 35.6836406, 33.2448993 ], [ 35.6833594, 33.2455756 ], [ 35.6832256, 33.2457777 ], [ 35.6829029, 33.2460034 ], [ 35.6827402, 33.2460343 ], [ 35.6826932, 33.2461935 ], [ 35.6824248, 33.2462543 ], [ 35.6823025, 33.246312 ], [ 35.6817533, 33.246794 ], [ 35.6814698, 33.2469828 ], [ 35.6812988, 33.2471513 ], [ 35.6810712, 33.2477405 ], [ 35.6804391, 33.247749 ], [ 35.6802161, 33.2476837 ], [ 35.6795573, 33.2476403 ], [ 35.6793731, 33.2476729 ], [ 35.6789249, 33.247653 ], [ 35.6782866, 33.2475146 ], [ 35.6777198, 33.2475005 ], [ 35.6771686, 33.2474315 ], [ 35.6768421, 33.2474413 ], [ 35.6762666, 33.2475101 ], [ 35.6759219, 33.2472815 ], [ 35.6752683, 33.2465882 ], [ 35.6752319, 33.2466437 ], [ 35.6748827, 33.2464127 ], [ 35.674635, 33.2464645 ], [ 35.6743898, 33.2462973 ], [ 35.6735727, 33.2463369 ], [ 35.6731227, 33.2464698 ], [ 35.6724596, 33.2464994 ], [ 35.671487, 33.2467285 ], [ 35.6705622, 33.247034 ], [ 35.6701501, 33.2472406 ], [ 35.6697642, 33.2473159 ], [ 35.6689756, 33.2471999 ], [ 35.6688367, 33.2471159 ], [ 35.6685437, 33.2470731 ], [ 35.667072, 33.2470769 ], [ 35.666598, 33.2471175 ], [ 35.6658242, 33.2470635 ], [ 35.6642512, 33.2473206 ], [ 35.6636874, 33.2474991 ], [ 35.6630294, 33.2475455 ], [ 35.6626307, 33.2474827 ], [ 35.662316, 33.247507 ], [ 35.6612508, 33.2474765 ], [ 35.6609397, 33.2475515 ], [ 35.6603254, 33.2477566 ], [ 35.6595211, 33.2480475 ], [ 35.6591604, 33.2482207 ], [ 35.6583326, 33.2487606 ], [ 35.658077, 33.2489736 ], [ 35.6580403, 33.2491025 ], [ 35.6577074, 33.2493033 ], [ 35.6570089, 33.2493746 ], [ 35.6555335, 33.2498285 ], [ 35.6551079, 33.2498413 ], [ 35.6543758, 33.2501391 ], [ 35.6539117, 33.2502665 ], [ 35.6535985, 33.2502886 ], [ 35.6528264, 33.2502864 ], [ 35.6522811, 33.2503225 ], [ 35.6518794, 33.2503165 ], [ 35.6510812, 33.2501901 ], [ 35.6510644, 33.2502187 ], [ 35.6506658, 33.2503184 ], [ 35.6501588, 33.2497365 ], [ 35.6500055, 33.2497224 ], [ 35.6498008, 33.2495456 ], [ 35.6497146, 33.2494712 ], [ 35.6496259, 33.2494737 ], [ 35.6496019, 33.2494448 ], [ 35.6490609, 33.2493177 ], [ 35.647518, 33.2488096 ], [ 35.6472576, 33.2483566 ], [ 35.646842, 33.2478714 ], [ 35.645712, 33.2468956 ], [ 35.6453299, 33.2466422 ], [ 35.6443233, 33.2460652 ], [ 35.643885, 33.2459779 ], [ 35.641794, 33.2449458 ], [ 35.6403733, 33.2446339 ], [ 35.6394013, 33.2445248 ], [ 35.6389521, 33.2445497 ], [ 35.6382111, 33.2446462 ], [ 35.6367078, 33.2446897 ], [ 35.6361349, 33.2447297 ], [ 35.6358439, 33.2447812 ], [ 35.6354387, 33.2445467 ], [ 35.6349553, 33.2445104 ], [ 35.6346414, 33.244414 ], [ 35.6341374, 33.2441982 ], [ 35.6337443, 33.2440677 ], [ 35.6334294, 33.2438175 ], [ 35.6331561, 33.2437967 ], [ 35.6326455, 33.2434033 ], [ 35.6323345, 33.2432565 ], [ 35.6313677, 33.2429644 ], [ 35.629917, 33.2429755 ], [ 35.629001, 33.2425545 ], [ 35.628834, 33.2425226 ], [ 35.6284424, 33.2422429 ], [ 35.6266664, 33.2420279 ], [ 35.6263401, 33.2418404 ], [ 35.6255367, 33.2420662 ], [ 35.6252679, 33.2420254 ], [ 35.6249817, 33.2419205 ], [ 35.6243964, 33.2422918 ], [ 35.6244382, 33.2423729 ], [ 35.624343, 33.2424583 ], [ 35.6244184, 33.2425322 ], [ 35.6243503, 33.2425779 ], [ 35.6238232, 33.2429636 ], [ 35.6234623, 33.2433116 ], [ 35.6233019, 33.2437057 ], [ 35.6231144, 33.2443287 ], [ 35.6231337, 33.244635 ], [ 35.6232758, 33.2447732 ], [ 35.6235059, 33.2448694 ], [ 35.6241046, 33.244925 ], [ 35.6243985, 33.2450347 ], [ 35.6249796, 33.2452521 ], [ 35.6253235, 33.2453318 ], [ 35.6255572, 33.2455637 ], [ 35.6256921, 33.2457983 ], [ 35.6257134, 33.2461592 ], [ 35.6255496, 33.2467294 ], [ 35.6251611, 33.247032 ], [ 35.6242871, 33.2474594 ], [ 35.6237782, 33.2479693 ], [ 35.6235699, 33.2483221 ], [ 35.6231265, 33.2489602 ], [ 35.6228291, 33.2492763 ], [ 35.6227664, 33.2495549 ], [ 35.6228716, 33.2499742 ], [ 35.6230654, 33.2505115 ], [ 35.623306, 33.2510466 ], [ 35.6235783, 33.2516911 ], [ 35.6238701, 33.2525406 ], [ 35.6236378, 33.2530689 ], [ 35.6232111, 33.2532496 ], [ 35.622507, 33.2533849 ], [ 35.621835, 33.2533544 ], [ 35.6212543, 33.2532426 ], [ 35.6205474, 33.2531746 ], [ 35.6202602, 33.2531786 ], [ 35.6200783, 33.2533118 ], [ 35.6197334, 33.2542363 ], [ 35.6192262, 33.2554442 ], [ 35.6191625, 33.2556574 ], [ 35.6191983, 33.2558367 ], [ 35.6193807, 33.255926 ], [ 35.6196905, 33.2559544 ], [ 35.619871, 33.2559176 ], [ 35.6201517, 33.255848 ], [ 35.6207814, 33.2558133 ], [ 35.6210867, 33.2558407 ], [ 35.621347, 33.2560213 ], [ 35.6214749, 33.2562593 ], [ 35.6215886, 33.2564951 ], [ 35.6216348, 33.2568856 ], [ 35.6215856, 33.2572288 ], [ 35.6216109, 33.2574698 ], [ 35.621549, 33.2576338 ], [ 35.621184, 33.2584139 ], [ 35.621196, 33.258691 ], [ 35.6230407, 33.2569793 ], [ 35.6232682, 33.2574478 ], [ 35.622989, 33.2581034 ], [ 35.6227062, 33.2587675 ], [ 35.6226568, 33.2592096 ], [ 35.6227478, 33.2594723 ], [ 35.6229656, 33.2596448 ], [ 35.6234063, 33.2599649 ], [ 35.6238656, 33.2603072 ], [ 35.6232558, 33.260616 ], [ 35.6230205, 33.2608808 ], [ 35.622712, 33.261149 ], [ 35.622234, 33.2616375 ], [ 35.621748, 33.2621648 ], [ 35.6217141, 33.2624798 ], [ 35.6219177, 33.2627679 ], [ 35.6223189, 33.263273 ], [ 35.6223445, 33.26334 ], [ 35.6224131, 33.263496 ], [ 35.6226224, 33.2640691 ], [ 35.6226562, 33.2644002 ], [ 35.6226309, 33.2647015 ], [ 35.6225718, 33.2649487 ], [ 35.6219337, 33.2662499 ], [ 35.6215895, 33.2668691 ], [ 35.6211463, 33.267666 ], [ 35.6208944, 33.2681929 ], [ 35.6207102, 33.2688872 ], [ 35.6203892, 33.2697371 ], [ 35.6200924, 33.2704204 ], [ 35.6200808, 33.2707079 ], [ 35.6201979, 33.2709297 ], [ 35.6203413, 33.2711462 ], [ 35.6206811, 33.2714638 ], [ 35.621387, 33.2718561 ], [ 35.6216838, 33.2720582 ], [ 35.6218269, 33.2722613 ], [ 35.621923, 33.2724782 ], [ 35.6219427, 33.2725473 ], [ 35.6219467, 33.2725549 ], [ 35.6219476, 33.2725604 ], [ 35.6222988, 33.2726894 ], [ 35.6223848, 33.2727215 ], [ 35.6227375, 33.2728531 ], [ 35.6258439, 33.2739834 ], [ 35.6271847, 33.2745034 ], [ 35.6341557, 33.2770861 ], [ 35.6375657, 33.2784175 ], [ 35.6379929, 33.2785745 ], [ 35.6381782, 33.2786597 ], [ 35.6383749, 33.2787407 ], [ 35.6410817, 33.2799889 ], [ 35.6412816, 33.2800653 ], [ 35.6416182, 33.2801944 ], [ 35.64294, 33.2804809 ], [ 35.644809, 33.2796535 ], [ 35.6545411, 33.2759325 ], [ 35.6581793, 33.2745417 ], [ 35.658815, 33.2740791 ], [ 35.6599549, 33.2747436 ], [ 35.6609108, 33.2757495 ], [ 35.6622187, 33.2784063 ], [ 35.663666, 33.2794701 ], [ 35.6688051, 33.2821815 ], [ 35.6718339, 33.284239 ], [ 35.6743932, 33.2860845 ], [ 35.676778, 33.2872152 ], [ 35.6781462, 33.2880933 ], [ 35.6794218, 33.289345 ], [ 35.6818879, 33.2910582 ], [ 35.6836265, 33.2929726 ], [ 35.6851435, 33.2938378 ], [ 35.6857116, 33.2940432 ], [ 35.6897521, 33.2956151 ], [ 35.6928581, 33.2968142 ], [ 35.7002288, 33.3007463 ], [ 35.7027055, 33.3024676 ], [ 35.7048331, 33.3040162 ], [ 35.7069965, 33.3053195 ], [ 35.7080587, 33.3071285 ], [ 35.709829, 33.310781 ], [ 35.7104099, 33.3136586 ], [ 35.7104303, 33.314487 ], [ 35.7104581, 33.3159836 ], [ 35.7109173, 33.3181676 ], [ 35.7119269, 33.3206214 ], [ 35.7139439, 33.3240424 ], [ 35.7153172, 33.3256695 ], [ 35.7165897, 33.3266547 ], [ 35.7180306, 33.3277385 ], [ 35.7202353, 33.3284198 ], [ 35.7219869, 33.3294257 ], [ 35.7232898, 33.3294875 ], [ 35.725015, 33.3298353 ], [ 35.7279923, 33.3298433 ], [ 35.7301745, 33.3294668 ], [ 35.7322945, 33.3288519 ], [ 35.7346506, 33.3278353 ], [ 35.7359702, 33.3271872 ], [ 35.7381407, 33.3261581 ], [ 35.7394002, 33.3256767 ], [ 35.7404087, 33.3255351 ], [ 35.7413153, 33.3255745 ], [ 35.7423775, 33.3259645 ], [ 35.7430738, 33.3266072 ], [ 35.7438237, 33.3277125 ], [ 35.745639, 33.3302369 ], [ 35.7462259, 33.3306286 ], [ 35.7468514, 33.3307147 ], [ 35.7474576, 33.3306035 ], [ 35.7482901, 33.3301472 ], [ 35.7497847, 33.3293987 ], [ 35.7507878, 33.3290711 ], [ 35.7517493, 33.3292432 ], [ 35.752678, 33.3296182 ], [ 35.7540735, 33.3301816 ], [ 35.7547993, 33.3304139 ], [ 35.755501, 33.330504 ], [ 35.7572031, 33.3306223 ], [ 35.7580705, 33.3308052 ], [ 35.7598155, 33.3314144 ], [ 35.7609158, 33.3318092 ], [ 35.7617043, 33.3320134 ], [ 35.763421, 33.332451 ], [ 35.7641195, 33.3328149 ], [ 35.7659299, 33.3344823 ], [ 35.7733352, 33.3356317 ], [ 35.78804, 33.3294608 ], [ 35.813197, 33.3169602 ], [ 35.8064222, 33.3095518 ], [ 35.7892158, 33.2912992 ], [ 35.7774064, 33.2767315 ], [ 35.7839877, 33.2658841 ], [ 35.8026826, 33.2557834 ], [ 35.810117, 33.2512723 ], [ 35.8150621, 33.2449606 ], [ 35.8153121, 33.2344864 ], [ 35.8160346, 33.2170467 ], [ 35.8171568, 33.2031106 ], [ 35.8376806, 33.1930585 ], [ 35.841353, 33.178532 ], [ 35.8444429, 33.167612 ], [ 35.8368898, 33.1562595 ], [ 35.8243585, 33.1384374 ], [ 35.818007, 33.1273686 ], [ 35.817492, 33.1203242 ], [ 35.816977, 33.1129915 ], [ 35.8241868, 33.1101158 ], [ 35.8363748, 33.1052269 ], [ 35.850451, 33.102351 ], [ 35.8533356, 33.0832824 ], [ 35.8557784, 33.0715346 ], [ 35.8577105, 33.0634153 ], [ 35.8583369, 33.0607829 ], [ 35.8637465, 33.0304083 ], [ 35.8643556, 33.02193 ], [ 35.8660647, 33.0168788 ], [ 35.8703951, 32.9914461 ], [ 35.8713235, 32.9814186 ], [ 35.8794469, 32.9686898 ], [ 35.8857835, 32.9600424 ], [ 35.8950234, 32.9448773 ], [ 35.8798081, 32.9265479 ], [ 35.8729148, 32.9233632 ], [ 35.8651036, 32.91147 ], [ 35.8614552, 32.907827 ], [ 35.8511167, 32.8898088 ], [ 35.8443799, 32.870215 ], [ 35.8456682, 32.8530981 ], [ 35.8376774, 32.8281659 ], [ 35.8366499, 32.8272788 ], [ 35.8327072, 32.8232246 ], [ 35.8167069, 32.8060712 ], [ 35.8003136, 32.7822758 ], [ 35.7948344, 32.7819299 ], [ 35.7825564, 32.7743256 ], [ 35.7564827, 32.7450901 ], [ 35.7556287, 32.7449493 ], [ 35.7544142, 32.7430326 ], [ 35.7531353, 32.741457 ], [ 35.7535902, 32.7398155 ], [ 35.7520731, 32.7375584 ], [ 35.7507682, 32.7363052 ], [ 35.7483501, 32.7333797 ], [ 35.7451858, 32.730902 ], [ 35.7413051, 32.7307527 ], [ 35.7374542, 32.7326632 ], [ 35.73426, 32.7262451 ], [ 35.7330062, 32.7241256 ], [ 35.7313727, 32.7234687 ], [ 35.7295428, 32.7233199 ], [ 35.7288187, 32.7258661 ], [ 35.7277101, 32.7266696 ], [ 35.7264429, 32.7269748 ], [ 35.7248943, 32.7255858 ], [ 35.7243069, 32.7220681 ], [ 35.7230291, 32.7210761 ], [ 35.7212202, 32.7213948 ], [ 35.7193523, 32.722709 ], [ 35.718715, 32.7221132 ], [ 35.7185171, 32.7196058 ], [ 35.7174192, 32.7164756 ], [ 35.7155505, 32.7160551 ], [ 35.7117896, 32.7187648 ], [ 35.7069752, 32.714855 ], [ 35.7036604, 32.715658 ], [ 35.7028062, 32.7159262 ], [ 35.7019061, 32.7147615 ], [ 35.7003644, 32.7125424 ], [ 35.7001384, 32.7124384 ], [ 35.6916276, 32.708522 ], [ 35.6871382, 32.7089235 ], [ 35.6816633, 32.7065875 ], [ 35.6762249, 32.7058575 ], [ 35.6758599, 32.7044341 ], [ 35.6776483, 32.7024631 ], [ 35.6766629, 32.6989957 ], [ 35.6714879, 32.6942681 ], [ 35.6710979, 32.6930465 ], [ 35.6719033, 32.6915565 ], [ 35.6720139, 32.6910509 ], [ 35.6715136, 32.6908563 ], [ 35.6714724, 32.690932 ], [ 35.6710824, 32.690957 ], [ 35.6703586, 32.6905629 ], [ 35.669024, 32.6896476 ], [ 35.6680923, 32.6893974 ], [ 35.6676374, 32.6892475 ], [ 35.6671, 32.6890212 ], [ 35.6665698, 32.6887453 ], [ 35.6660981, 32.6887087 ], [ 35.6659904, 32.6886297 ], [ 35.6658852, 32.6884661 ], [ 35.6657144, 32.6883568 ], [ 35.6656223, 32.6883273 ], [ 35.6653673, 32.6883158 ], [ 35.665171, 32.6882331 ], [ 35.6651213, 32.6881719 ], [ 35.6650738, 32.6880007 ], [ 35.6649635, 32.6878033 ], [ 35.6647947, 32.6876315 ], [ 35.6645738, 32.6875066 ], [ 35.6644368, 32.6874959 ], [ 35.6640297, 32.68753 ], [ 35.663873, 32.6875075 ], [ 35.6630126, 32.6872954 ], [ 35.6627224, 32.6871877 ], [ 35.6622336, 32.6870519 ], [ 35.6615108, 32.6869745 ], [ 35.6613822, 32.6869908 ], [ 35.6612088, 32.6870805 ], [ 35.6609731, 32.6874003 ], [ 35.6607532, 32.687462 ], [ 35.6605358, 32.6873771 ], [ 35.6604489, 32.6873808 ], [ 35.66031, 32.6874506 ], [ 35.6601354, 32.6876 ], [ 35.6599882, 32.6876107 ], [ 35.659843, 32.6875577 ], [ 35.6597961, 32.6875049 ], [ 35.6596419, 32.6870602 ], [ 35.6595356, 32.6868403 ], [ 35.6593281, 32.686566 ], [ 35.6591554, 32.6864471 ], [ 35.6589409, 32.6864209 ], [ 35.6585859, 32.6864329 ], [ 35.6580774, 32.6865288 ], [ 35.6573442, 32.6863725 ], [ 35.6568516, 32.6863388 ], [ 35.6559187, 32.6864295 ], [ 35.6558435, 32.686347 ], [ 35.655709, 32.6861096 ], [ 35.6555485, 32.6859924 ], [ 35.6554557, 32.6859663 ], [ 35.6553552, 32.6859542 ], [ 35.6549303, 32.6860166 ], [ 35.6546537, 32.6860052 ], [ 35.6543014, 32.6859163 ], [ 35.6539345, 32.6857423 ], [ 35.6533029, 32.6856195 ], [ 35.6528891, 32.6855911 ], [ 35.6526497, 32.685601 ], [ 35.6525508, 32.6855782 ], [ 35.6524623, 32.6855357 ], [ 35.6523774, 32.6854137 ], [ 35.6523719, 32.684977 ], [ 35.6522867, 32.6847383 ], [ 35.6521245, 32.684576 ], [ 35.651727, 32.6842793 ], [ 35.651571, 32.6840995 ], [ 35.6514159, 32.6838121 ], [ 35.6512658, 32.6836148 ], [ 35.6507435, 32.6831664 ], [ 35.6503156, 32.6826184 ], [ 35.6502385, 32.6825714 ], [ 35.649909, 32.6824677 ], [ 35.6492661, 32.6823088 ], [ 35.648869, 32.682149 ], [ 35.6486663, 32.6821334 ], [ 35.6481229, 32.6822272 ], [ 35.6474966, 32.682261 ], [ 35.6471103, 32.6823294 ], [ 35.6467596, 32.6823239 ], [ 35.6465728, 32.6823493 ], [ 35.646037, 32.6824831 ], [ 35.6458691, 32.6825586 ], [ 35.6454156, 32.68266 ], [ 35.6451888, 32.6827425 ], [ 35.6446656, 32.6829979 ], [ 35.643979, 32.6831976 ], [ 35.6438688, 32.6832481 ], [ 35.6436329, 32.6834361 ], [ 35.6432393, 32.6838567 ], [ 35.642962, 32.6842849 ], [ 35.6428583, 32.6846088 ], [ 35.642725, 32.6847473 ], [ 35.6424307, 32.6849039 ], [ 35.6419169, 32.6849902 ], [ 35.6415454, 32.6851498 ], [ 35.6407855, 32.685729 ], [ 35.6393991, 32.6868796 ], [ 35.6376991, 32.6876018 ], [ 35.6356168, 32.6878169 ], [ 35.6350854, 32.6918539 ], [ 35.6384618, 32.7012358 ], [ 35.6376407, 32.7052118 ], [ 35.6416597, 32.7067832 ], [ 35.6446593, 32.7080632 ], [ 35.649195, 32.7135442 ], [ 35.6498312, 32.714606 ], [ 35.6496233, 32.7157254 ], [ 35.6497779, 32.7178698 ], [ 35.6509757, 32.7209077 ], [ 35.6508365, 32.7222263 ], [ 35.6498989, 32.7240742 ], [ 35.6500169, 32.7264723 ], [ 35.6515985, 32.7283704 ], [ 35.6522383, 32.7308783 ], [ 35.6520765, 32.733429 ], [ 35.6518678, 32.7338028 ], [ 35.6521007, 32.7342415 ], [ 35.6528994, 32.7362743 ], [ 35.6538168, 32.7376128 ], [ 35.6548098, 32.7393276 ], [ 35.6550995, 32.7411175 ], [ 35.6551144, 32.7414038 ], [ 35.6558813, 32.7431593 ], [ 35.657234, 32.7444084 ], [ 35.6555182, 32.7540047 ], [ 35.6618117, 32.7730173 ], [ 35.6624478, 32.7771955 ], [ 35.6596478, 32.7829506 ], [ 35.659544, 32.7832159 ], [ 35.6592063, 32.7838657 ], [ 35.6548462, 32.7928489 ], [ 35.6549714, 32.7952055 ], [ 35.6556746, 32.8084446 ], [ 35.6440314, 32.8106777 ], [ 35.64436, 32.8116182 ], [ 35.6446723, 32.8126654 ], [ 35.644778, 32.8133824 ], [ 35.6447996, 32.8141905 ], [ 35.6448576, 32.8144399 ], [ 35.6451786, 32.8153613 ], [ 35.6453417, 32.8168181 ], [ 35.6454738, 32.8185776 ], [ 35.6453296, 32.8191389 ], [ 35.6454425, 32.819928 ], [ 35.6454574, 32.8217443 ], [ 35.6453234, 32.8228223 ], [ 35.6446661, 32.8258588 ], [ 35.6444565, 32.8261194 ], [ 35.644331, 32.8264258 ], [ 35.6441604, 32.8270869 ], [ 35.6433483, 32.8280844 ], [ 35.6433775, 32.8285222 ], [ 35.6426406, 32.8298396 ], [ 35.6426687, 32.8303422 ], [ 35.6425356, 32.8319764 ], [ 35.6423496, 32.8326116 ], [ 35.6421587, 32.8330096 ], [ 35.6418478, 32.8333257 ], [ 35.6415179, 32.8336024 ], [ 35.6413675, 32.8339005 ], [ 35.6413428, 32.8341277 ], [ 35.6421914, 32.8344798 ], [ 35.6424327, 32.8345009 ], [ 35.64329, 32.8342409 ], [ 35.643587, 32.8342692 ], [ 35.6442118, 32.834529 ], [ 35.6450338, 32.8357119 ], [ 35.6451802, 32.8362941 ], [ 35.6454288, 32.8365699 ], [ 35.6458671, 32.8367273 ], [ 35.6465492, 32.8368286 ], [ 35.6469241, 32.8370042 ], [ 35.6473773, 32.8374754 ], [ 35.6477249, 32.8379926 ], [ 35.6480911, 32.838622 ], [ 35.6486376, 32.8389131 ], [ 35.6490902, 32.8393308 ], [ 35.6493828, 32.8397225 ], [ 35.6495721, 32.8403226 ], [ 35.6497337, 32.8412276 ], [ 35.6497943, 32.8421156 ], [ 35.6498035, 32.8435425 ], [ 35.6496958, 32.8449799 ], [ 35.649548, 32.8461583 ], [ 35.6490601, 32.8489412 ], [ 35.6486264, 32.8506514 ], [ 35.6480152, 32.8528063 ], [ 35.647183, 32.8549328 ], [ 35.6468009, 32.855771 ], [ 35.6463917, 32.8565434 ], [ 35.6457571, 32.857591 ], [ 35.6446728, 32.8591993 ], [ 35.6431145, 32.8612285 ], [ 35.6430867, 32.862279 ], [ 35.6434322, 32.8626526 ], [ 35.6438285, 32.8632277 ], [ 35.6440489, 32.863773 ], [ 35.6440436, 32.864159 ], [ 35.6432552, 32.8660221 ], [ 35.6427057, 32.8670683 ], [ 35.6411019, 32.8688344 ], [ 35.640444, 32.8697384 ], [ 35.6377173, 32.87373 ], [ 35.636767, 32.8750497 ], [ 35.6358784, 32.8762075 ], [ 35.6347419, 32.8774884 ], [ 35.6324934, 32.8795925 ], [ 35.6301703, 32.8815374 ], [ 35.6299299, 32.8818538 ], [ 35.629761, 32.8831624 ], [ 35.6296124, 32.8839716 ], [ 35.6282944, 32.8848727 ], [ 35.6275744, 32.8855485 ], [ 35.6254349, 32.8878669 ], [ 35.6250493, 32.8884718 ], [ 35.6238278, 32.8896734 ], [ 35.6223216, 32.8908456 ], [ 35.6217881, 32.8915332 ], [ 35.6200125, 32.8924566 ], [ 35.6187654, 32.8929685 ], [ 35.61841, 32.8934565 ], [ 35.6173205, 32.8939606 ], [ 35.6157546, 32.894633 ], [ 35.6146301, 32.8950103 ], [ 35.6139925, 32.8951967 ], [ 35.6133177, 32.8952806 ], [ 35.6138045, 32.896401 ], [ 35.6139837, 32.8973833 ], [ 35.6137602, 32.8979893 ] ] ] ] } }
]
}
